NORAD_CAT_ID,OBJECT_NAME,OBJECT_TYPE,EPOCH,MEAN_MOTION,ECCENTRICITY,INCLINATION,RA_OF_ASC_NODE,ARG_OF_PERICENTER,MEAN_ANOMALY,BSTAR,MEAN_MOTION_DOT,MEAN_MOTION_DDOT,TLE_LINE0,TLE_LINE1,TLE_LINE2,SEMIMAJOR_AXIS,PERIOD,APOGEE,PERIGEE,DECAYED
52310.0,STARLINK-3688,PAYLOAD,2022-05-16 14:00:01,15.7321399,0.0002684,53.2151,251.5551,14.8182,262.093,-0.00078171,-0.00109009,0.0,0 STARLINK-3688,1 52310U 22041BB  22136.58334491 -.00109009  00000-0 -78171-3 0  9999,2 52310  53.2151 251.5551 0002684  14.8182 262.0930 15.73213990  1304,6727.855,91.532,351.526,347.915,0.0
52310.0,STARLINK-3688,PAYLOAD,2022-05-16 22:00:00,15.73145096,0.0002839,53.215,249.9054,14.2059,351.622,-6.288999999999999e-06,-1.503e-05,0.0,0 STARLINK-3688,1 52310U 22041BB  22136.91667824 -.00001503  00000-0 -62890-5 0  9998,2 52310  53.2150 249.9054 0002839  14.2059 351.6220 15.73145096  1309,6728.052,91.536,351.827,348.00699999999995,0.0
52310.0,STARLINK-3688,PAYLOAD,2022-05-17 06:00:00,15.73129922,0.0002713,53.2152,248.2545,18.752,75.9336,0.0006947,0.00097733,0.0,0 STARLINK-3688,1 52310U 22041BB  22137.25001157  .00097733  00000-0  69470-3 0  9994,2 52310  53.2152 248.2545 0002713  18.7520  75.9336 15.73129922  5253,6728.095,91.537,351.785,348.135,0.0
52310.0,STARLINK-3688,PAYLOAD,2022-05-17 14:00:01,15.732162099999998,0.0002985,53.2148,246.607,17.1424,166.5047,6.7208e-06,3.21e-06,0.0,0 STARLINK-3688,1 52310U 22041BB  22137.58335648  .00000321  00000-0  67208-5 0  9991,2 52310  53.2148 246.6070 0002985  17.1424 166.5047 15.73216210  1305,6727.849,91.532,351.722,347.706,0.0
52310.0,STARLINK-3688,PAYLOAD,2022-05-17 20:00:01,15.7325932,0.0003073,53.2141,245.3701,15.3494,144.9551,-0.00049062,-0.00069109,0.0,0 STARLINK-3688,1 52310U 22041BB  22137.83334491 -.00069109  00000-0 -49062-3 0  9991,2 52310  53.2141 245.3701 0003073  15.3494 144.9551 15.73259320  5348,6727.726,91.53,351.658,347.524,0.0
52310.0,STARLINK-3688,PAYLOAD,2022-05-17 22:00:01,15.73261494,0.0003003999999999,53.2141,244.9569,15.399,257.2155,-0.00070526,-0.00098735,0.0,0 STARLINK-3688,1 52310U 22041BB  22137.91668981 -.00098735  00000-0 -70526-3 0  9990,2 52310  53.2141 244.9569 0003004  15.3990 257.2155 15.73261494  1305,6727.72,91.53,351.606,347.564,0.0
52310.0,STARLINK-3688,PAYLOAD,2022-05-18 12:00:00,15.73223084,0.0003003999999999,53.2143,242.0704,14.5388,323.6852,-0.00011928,-0.00017349,0.0,0 STARLINK-3688,1 52310U 22041BB  22138.50001157 -.00017349  00000-0 -11928-3 0  9995,2 52310  53.2143 242.0704 0003004  14.5388 323.6852 15.73223084  5454,6727.829000000002,91.532,351.715,347.673,0.0
52310.0,STARLINK-3688,PAYLOAD,2022-05-18 14:00:01,15.73204778,0.0003117,53.2146,241.6587,13.656,76.8111,0.00012879,0.00017497,0.0,0 STARLINK-3688,1 52310U 22041BB  22138.58334491  .00017497  00000-0  12879-3 0  9991,2 52310  53.2146 241.6587 0003117  13.6560  76.8111 15.73204778  1302,6727.882,91.533,351.844,347.649,0.0
52310.0,STARLINK-3688,PAYLOAD,2022-05-18 22:00:00,15.73232482,0.0003149,53.2141,240.0087,11.0159,168.3623,-0.00073797,-0.00103109,0.0,0 STARLINK-3688,1 52310U 22041BB  22138.91667824 -.00103109  00000-0 -73797-3 0  9991,2 52310  53.2141 240.0087 0003149  11.0159 168.3623 15.73232482  1304,6727.803000000001,91.531,351.786,347.5490000000001,0.0
52310.0,STARLINK-3688,PAYLOAD,2022-05-19 06:00:00,15.73128601,0.0003045,53.2143,238.3578,14.6475,253.6408,0.00065454,0.00091983,0.0,0 STARLINK-3688,1 52310U 22041BB  22139.25001157  .00091983  00000-0  65454-3 0  9995,2 52310  53.2143 238.3578 0003045  14.6475 253.6408 15.73128601  5575,6728.099,91.537,352.01199999999994,347.915,0.0
52310.0,STARLINK-3688,PAYLOAD,2022-05-19 14:00:01,15.73215433,0.0003351,53.2138,236.7104,13.2019,344.0462,-5.6875e-05,-8.605e-05,0.0,0 STARLINK-3688,1 52310U 22041BB  22139.58335648 -.00008605  00000-0 -56875-4 0  9995,2 52310  53.2138 236.7104 0003351  13.2019 344.0462 15.73215433  1307,6727.851,91.532,351.971,347.462,0.0
52310.0,STARLINK-3688,PAYLOAD,2022-05-19 22:00:00,15.73246866,0.0003272,53.213,235.06,9.0777,77.0677,-0.00050655,-0.00071281,0.0,0 STARLINK-3688,1 52310U 22041BB  22139.91667824 -.00071281  00000-0 -50655-3 0  9995,2 52310  53.2130 235.0600 0003272   9.0777  77.0677 15.73246866  5677,6727.762,91.53,351.82800000000015,347.425,0.0
52310.0,STARLINK-3688,PAYLOAD,2022-05-20 14:00:01,15.73251811,0.0003406,53.2134,231.7618,6.6697,257.3539,-0.00060851,-0.00085383,0.0,0 STARLINK-3688,1 52310U 22041BB  22140.58334491 -.00085383  00000-0 -60851-3 0  9998,2 52310  53.2134 231.7618 0003406   6.6697 257.3539 15.73251811  5784,6727.746999999999,91.53,351.904,347.321,0.0
52310.0,STARLINK-3688,PAYLOAD,2022-05-20 22:00:00,15.73225658,0.0003409,53.2138,230.1111,9.5069,343.463,-0.00021746,-0.00031074,0.0,0 STARLINK-3688,1 52310U 22041BB  22140.91667824 -.00031074  00000-0 -21746-3 0  9992,2 52310  53.2138 230.1111 0003409   9.5069 343.4630 15.73225658  5832,6727.821999999999,91.532,351.981,347.394,0.0
52310.0,STARLINK-3688,PAYLOAD,2022-05-21 06:00:00,15.73195315,0.0003388,53.2143,228.4606,12.5899,69.3169,0.00012854,0.00017455,0.0,0 STARLINK-3688,1 52310U 22041BB  22141.25001157  .00017455  00000-0  12854-3 0  9996,2 52310  53.2143 228.4606 0003388  12.5899  69.3169 15.73195315  1303,6727.909000000002,91.533,352.05300000000005,347.494,0.0
52310.0,STARLINK-3688,PAYLOAD,2022-05-21 14:00:01,15.73224475,0.0003708,53.2146,226.813,12.5441,158.3706,0.00025522,0.00035395,0.0,0 STARLINK-3688,1 52310U 22041BB  22141.58335648  .00035395  00000-0  25522-3 0  9996,2 52310  53.2146 226.8130 0003708  12.5441 158.3706 15.73224475  5938,6727.825,91.532,352.185,347.196,0.0
52310.0,STARLINK-3688,PAYLOAD,2022-05-21 22:00:00,15.73265317,0.0003562,53.2145,225.1621,9.1831,250.6504,-0.00074107,-0.00103689,0.0,0 STARLINK-3688,1 52310U 22041BB  22141.91667824 -.00103689  00000-0 -74107-3 0  9994,2 52310  53.2145 225.1621 0003562   9.1831 250.6504 15.73265317  1306,6727.709,91.529,351.97,347.17800000000005,0.0
52310.0,STARLINK-3688,PAYLOAD,2022-05-22 06:00:00,15.73199309,0.000344,53.2149,223.5118,8.8865,339.8855,-0.00021902,-0.00031257,0.0,0 STARLINK-3688,1 52310U 22041BB  22142.25001157 -.00031257  00000-0 -21902-3 0  9999,2 52310  53.2149 223.5118 0003440   8.8865 339.8855 15.73199309  6043,6727.897,91.533,352.077,347.4480000000001,0.0
52310.0,STARLINK-3688,PAYLOAD,2022-05-22 14:00:01,15.73172084,0.0003764,53.2155,221.8649,9.2165,68.47,-7.44e-05,-0.00011044,0.0,0 STARLINK-3688,1 52310U 22041BB  22142.58334491 -.00011044  00000-0 -74400-4 0  9999,2 52310  53.2155 221.8649 0003764   9.2165  68.4700 15.73172084  1306,6727.975,91.535,352.372,347.307,0.0
52310.0,STARLINK-3688,PAYLOAD,2022-05-22 22:00:01,15.73219225,0.0003706,53.2152,220.2134,5.6834,160.998,-0.00038366,-0.00054189,0.0,0 STARLINK-3688,1 52310U 22041BB  22142.91668981 -.00054189  00000-0 -38366-3 0  9997,2 52310  53.2152 220.2134 0003706   5.6834 160.9980 15.73219225  6148,6727.84,91.532,352.199,347.212,0.0
52310.0,STARLINK-3688,PAYLOAD,2022-05-23 04:00:00,15.733681400000002,0.0003615,53.2162,218.9748,9.1429,134.1444,-0.0035073,-0.00470046,0.0,0 STARLINK-3688,1 52310U 22041BB  22143.16667824 -.00470046  00000-0 -35073-2 0  9995,2 52310  53.2162 218.9748 0003615   9.1429 134.1444 15.73368140  6185,6727.416,91.523,351.713,346.849,0.0
52310.0,STARLINK-3688,PAYLOAD,2022-05-23 14:00:01,15.73155245,0.0003927,53.2152,216.9159,2.8474,341.6273,0.00022842,0.00031504,0.0,0 STARLINK-3688,1 52310U 22041BB  22143.58334491  .00031504  00000-0  22842-3 0  9993,2 52310  53.2152 216.9159 0003927   2.8474 341.6273 15.73155245  6257,6728.023,91.536,352.53,347.246,0.0
52310.0,STARLINK-3688,PAYLOAD,2022-05-23 22:00:01,15.73171061,0.000378,53.2148,215.2647,359.0425,74.4096,-2.5939e-05,-4.26e-05,0.0,0 STARLINK-3688,1 52310U 22041BB  22143.91668981 -.00004260  00000-0 -25939-4 0  9996,2 52310  53.2148 215.2647 0003780 359.0425  74.4096 15.73171061  1305,6727.978,91.535,352.386,347.3,0.0
52310.0,STARLINK-3688,PAYLOAD,2022-05-24 12:56:12,15.7318983,0.000377,53.2155,212.1851,10.0974,350.0121,8.6855e-06,5.95e-06,0.0,0 STARLINK-3688,1 52310U 22041BB  22144.53903881  .00000595  00000-0  86855-5 0  9996,2 52310  53.2155 212.1851 0003770  10.0974 350.0121 15.73189830  6409,6727.924,91.534,352.326,347.25300000000016,0.0
52310.0,STARLINK-3688,PAYLOAD,2022-05-24 14:00:01,15.73224094,0.000396,53.2153,211.9676,358.0367,253.1352,-0.00033558,-0.00047527,0.0,0 STARLINK-3688,1 52310U 22041BB  22144.58334491 -.00047527  00000-0 -33558-3 0  9994,2 52310  53.2153 211.9676 0003960 358.0367 253.1352 15.73224094  6413,6727.826,91.532,352.356,347.027,0.0
52310.0,STARLINK-3688,PAYLOAD,2022-05-24 22:00:00,15.73165545,0.0003756,53.2155,210.3162,354.7071,345.4190000000001,-0.00011933,-0.00017319,0.0,0 STARLINK-3688,1 52310U 22041BB  22144.91667824 -.00017319  00000-0 -11933-3 0  9999,2 52310  53.2155 210.3162 0003756 354.7071 345.4190 15.73165545  1309,6727.993,91.535,352.385,347.331,0.0
52310.0,STARLINK-3688,PAYLOAD,2022-05-25 12:00:00,15.73184522,0.0004013,53.2154,207.4313,357.6248,48.0494,0.00039182,0.00054709,0.0,0 STARLINK-3688,1 52310U 22041BB  22145.50001157  .00054709  00000-0  39182-3 0  9994,2 52310  53.2154 207.4313 0004013 357.6248  48.0494 15.73184522  6559,6727.939,91.534,352.504,347.10400000000016,0.0
52310.0,STARLINK-3688,PAYLOAD,2022-05-25 14:00:01,15.73174398,0.0004078,53.2154,207.0191,357.4964,160.4127,0.00070076,0.00098815,0.0,0 STARLINK-3688,1 52310U 22041BB  22145.58334491  .00098815  00000-0  70076-3 0  9995,2 52310  53.2154 207.0191 0004078 357.4964 160.4127 15.73174398  1303,6727.968000000003,91.535,352.577,347.09,0.0
52310.0,STARLINK-3688,PAYLOAD,2022-05-25 22:00:00,15.73268268,0.0003897,53.2151,205.3678,359.9134,246.9498,-0.00040607,-0.0005742,0.0,0 STARLINK-3688,1 52310U 22041BB  22145.91667824 -.00057420  00000-0 -40607-3 0  9997,2 52310  53.2151 205.3678 0003897 359.9134 246.9498 15.73268268  1306,6727.701,91.529,352.18699999999984,346.944,0.0
